0 FENGYUN 1C DEB
1 30677U 99025AQK 13282.60018529  .00001347  00000-0  64707-3 0  5803
2 30677 098.2712 141.5360 0082644 320.8331 098.5168 14.18659816346827
0 FENGYUN 1C DEB
1 30677U 99025AQK 13283.88197067  .00001646  00000-0  78606-3 0  5815
2 30677 098.2711 142.7324 0082542 317.1055 164.8180 14.18663229347003
0 FENGYUN 1C DEB
1 30677U 99025AQK 13285.34918663  .00001382  00000-0  66319-3 0  5827
2 30677 098.2707 144.1018 0082415 312.8624 098.1426 14.18668229347217
0 FENGYUN 1C DEB
1 30677U 99025AQK 13286.84615897  .00001636  00000-0  78143-3 0  5837
2 30677 098.2704 145.4990 0082289 308.5164 183.4860 14.18672066347424
0 FENGYUN 1C DEB
1 30677U 99025AQK 13288.11534748  .00002261  00000-0  10731-2 0  5848
2 30677 098.2702 146.6835 0082184 304.8131 185.5253 14.18679654347609
0 FENGYUN 1C DEB
1 30677U 99025AQK 13289.29912895  .00001817  00000-0  86606-3 0  5853
2 30677 098.2700 147.7884 0082119 301.3333 111.4265 14.18685071347776
0 FENGYUN 1C DEB
1 30677U 99025AQK 13291.34375286  .00002179  00000-0  10345-2 0  5868
2 30677 098.2695 149.6956 0082089 295.3966 113.8701 14.18691445348066
0 FENGYUN 1C DEB
1 30677U 99025AQK 13292.54452308  .00002118  00000-0  10061-2 0  5871
2 30677 098.2693 150.8162 0081987 291.9078 126.5549 14.18696392348235
0 FENGYUN 1C DEB
1 30677U 99025AQK 13293.60376137  .00002354  00000-0  11159-2 0  5886
2 30677 098.2693 151.8048 0081894 288.8182 136.4281 14.18700185348382
0 FENGYUN 1C DEB
1 30677U 99025AQK 13295.16763874  .00002816  00000-0  13315-2 0  5897
2 30677 098.2694 153.2642 0081797 284.2095 203.7306 14.18705597348607
